{
  "type": "FeatureCollection",
  "features": [
    {
      "type": "Feature",
      "properties": {
        "norad_id": 66619,
        "name": "STARLINK-35951",
        "group": "last-30-days",
        "lat": -51.67299304635764,
        "lon": 117.7074188954623,
        "alt_km": 417.4859443759424,
        "timestamp": "2025-12-12T07:43:19.258674+00:00",
        "meta_object_name": "STARLINK-35951",
        "meta_object_id": "2025-271C",
        "meta_epoch": "2025-12-11T20:00:01.999872",
        "meta_mean_motion": 15.53795157,
        "meta_eccentricity": 8.832e-05,
        "meta_inclination": 53.1602,
        "meta_ra_of_asc_node": 191.5664,
        "meta_arg_of_pericenter": 96.3855,
        "meta_mean_anomaly": 333.4445,
        "meta_ephemeris_type": 0,
        "meta_classification_type": "U",
        "meta_norad_cat_id": 66619,
        "meta_element_set_no": 999,
        "meta_rev_at_epoch": 409,
        "meta_bstar": -0.035427354,
        "meta_mean_motion_dot": -0.02062,
        "meta_mean_motion_ddot": 0,
        "tle_line1": "1 66619U 25271C   25345.83335648 -.02062000  00000+0 -35427-1 0  9997",
        "tle_line2": "2 66619  53.1602 191.5664 0000883  96.3855 333.4445 15.53795157  4091"
      },
      "geometry": {
        "type": "Point",
        "coordinates": [
          117.7074188954623,
          -51.67299304635764
        ]
      }
    },
    {
      "type": "Feature",
      "properties": {
        "norad_id": 66620,
        "name": "STARLINK-35936",
        "group": "last-30-days",
        "lat": -52.776404472762266,
        "lon": 108.51971108973409,
        "alt_km": 417.47512610795184,
        "timestamp": "2025-12-12T07:43:19.258684+00:00",
        "meta_object_name": "STARLINK-35936",
        "meta_object_id": "2025-271D",
        "meta_epoch": "2025-12-11T20:00:01.999872",
        "meta_mean_motion": 15.53792714,
        "meta_eccentricity": 8.378e-05,
        "meta_inclination": 53.1597,
        "meta_ra_of_asc_node": 191.5791,
        "meta_arg_of_pericenter": 90.4996,
        "meta_mean_anomaly": 333.5813,
        "meta_ephemeris_type": 0,
        "meta_classification_type": "U",
        "meta_norad_cat_id": 66620,
        "meta_element_set_no": 999,
        "meta_rev_at_epoch": 409,
        "meta_bstar": -0.035358294,
        "meta_mean_motion_dot": -0.02058226,
        "meta_mean_motion_ddot": 0,
        "tle_line1": "1 66620U 25271D   25345.83335648 -.02058226  00000+0 -35358-1 0  9997",
        "tle_line2": "2 66620  53.1597 191.5791 0000837  90.4996 333.5813 15.53792714  4093"
      },
      "geometry": {
        "type": "Point",
        "coordinates": [
          108.51971108973409,
          -52.776404472762266
        ]
      }
    },
    {
      "type": "Feature",
      "properties": {
        "norad_id": 66621,
        "name": "STARLINK-35847",
        "group": "last-30-days",
        "lat": -23.234834650563602,
        "lon": 170.33865790501298,
        "alt_km": 415.6912798159765,
        "timestamp": "2025-12-12T07:43:19.258694+00:00",
        "meta_object_name": "STARLINK-35847",
        "meta_object_id": "2025-271E",
        "meta_epoch": "2025-12-11T20:00:01.999872",
        "meta_mean_motion": 15.53788475,
        "meta_eccentricity": 0.00011741,
        "meta_inclination": 53.1593,
        "meta_ra_of_asc_node": 191.463,
        "meta_arg_of_pericenter": 77.9166,
        "meta_mean_anomaly": 41.1112,
        "meta_ephemeris_type": 0,
        "meta_classification_type": "U",
        "meta_norad_cat_id": 66621,
        "meta_element_set_no": 999,
        "meta_rev_at_epoch": 409,
        "meta_bstar": -0.035273926,
        "meta_mean_motion_dot": -0.02053762,
        "meta_mean_motion_ddot": 0,
        "tle_line1": "1 66621U 25271E   25345.83335648 -.02053762  00000+0 -35274-1 0  9995",
        "tle_line2": "2 66621  53.1593 191.4630 0001174  77.9166  41.1112 15.53788475  4098"
      },
      "geometry": {
        "type": "Point",
        "coordinates": [
          170.33865790501298,
          -23.234834650563602
        ]
      }
    },
    {
      "type": "Feature",
      "properties": {
        "norad_id": 66622,
        "name": "STARLINK-35950",
        "group": "last-30-days",
        "lat": -51.14966506884503,
        "lon": 120.65608907400134,
        "alt_km": 417.3846922217617,
        "timestamp": "2025-12-12T07:43:19.258704+00:00",
        "meta_object_name": "STARLINK-35950",
        "meta_object_id": "2025-271F",
        "meta_epoch": "2025-12-11T20:00:01.999872",
        "meta_mean_motion": 15.53791197,
        "meta_eccentricity": 8.353e-05,
        "meta_inclination": 53.1598,
        "meta_ra_of_asc_node": 191.5632,
        "meta_arg_of_pericenter": 91.1171,
        "meta_mean_anomaly": 340.6317,
        "meta_ephemeris_type": 0,
        "meta_classification_type": "U",
        "meta_norad_cat_id": 66622,
        "meta_element_set_no": 999,
        "meta_rev_at_epoch": 409,
        "meta_bstar": -0.035303442,
        "meta_mean_motion_dot": -0.02055274,
        "meta_mean_motion_ddot": 0,
        "tle_line1": "1 66622U 25271F   25345.83335648 -.02055274  00000+0 -35303-1 0  9999",
        "tle_line2": "2 66622  53.1598 191.5632 0000835  91.1171 340.6317 15.53791197  4093"
      },
      "geometry": {
        "type": "Point",
        "coordinates": [
          120.65608907400134,
          -51.14966506884503
        ]
      }
    },
    {
      "type": "Feature",
      "properties": {
        "norad_id": 66623,
        "name": "STARLINK-35920",
        "group": "last-30-days",
        "lat": -49.88975560063707,
        "lon": 126.33187765127408,
        "alt_km": 417.3202303424159,
        "timestamp": "2025-12-12T07:43:19.258714+00:00",
        "meta_object_name": "STARLINK-35920",
        "meta_object_id": "2025-271G",
        "meta_epoch": "2025-12-11T20:00:01.999872",
        "meta_mean_motion": 15.53791272,
        "meta_eccentricity": 7.965e-05,
        "meta_inclination": 53.1597,
        "meta_ra_of_asc_node": 191.5541,
        "meta_arg_of_pericenter": 94.6054,
        "meta_mean_anomaly": 340.9768,
        "meta_ephemeris_type": 0,
        "meta_classification_type": "U",
        "meta_norad_cat_id": 66623,
        "meta_element_set_no": 999,
        "meta_rev_at_epoch": 409,
        "meta_bstar": -0.035301695,
        "meta_mean_motion_dot": -0.02055166,
        "meta_mean_motion_ddot": 0,
        "tle_line1": "1 66623U 25271G   25345.83335648 -.02055166  00000+0 -35302-1 0  9999",
        "tle_line2": "2 66623  53.1597 191.5541 0000796  94.6054 340.9768 15.53791272  4093"
      },
      "geometry": {
        "type": "Point",
        "coordinates": [
          126.33187765127408,
          -49.88975560063707
        ]
      }
    },
    {
      "type": "Feature",
      "properties": {
        "norad_id": 66624,
        "name": "STARLINK-35927",
        "group": "last-30-days",
        "lat": -50.55383737081863,
        "lon": 123.53235842638537,
        "alt_km": 417.42206069790245,
        "timestamp": "2025-12-12T07:43:19.258735+00:00",
        "meta_object_name": "STARLINK-35927",
        "meta_object_id": "2025-271H",
        "meta_epoch": "2025-12-11T20:00:01.999872",
        "meta_mean_motion": 15.53792087,
        "meta_eccentricity": 8.942e-05,
        "meta_inclination": 53.1593,
        "meta_ra_of_asc_node": 191.559,
        "meta_arg_of_pericenter": 94.7109,
        "meta_mean_anomaly": 338.9544,
        "meta_ephemeris_type": 0,
        "meta_classification_type": "U",
        "meta_norad_cat_id": 66624,
        "meta_element_set_no": 999,
        "meta_rev_at_epoch": 409,
        "meta_bstar": -0.035326139,
        "meta_mean_motion_dot": -0.02056548,
        "meta_mean_motion_ddot": 0,
        "tle_line1": "1 66624U 25271H   25345.83335648 -.02056548  00000+0 -35326-1 0  9991",
        "tle_line2": "2 66624  53.1593 191.5590 0000894  94.7109 338.9544 15.53792087  4099"
      },
      "geometry": {
        "type": "Point",
        "coordinates": [
          123.53235842638537,
          -50.55383737081863
        ]
      }
    },
    {
      "type": "Feature",
      "properties": {
        "norad_id": 66625,
        "name": "STARLINK-35929",
        "group": "last-30-days",
        "lat": -49.15941003702485,
        "lon": 129.05234835167903,
        "alt_km": 417.28259958422404,
        "timestamp": "2025-12-12T07:43:19.258760+00:00",
        "meta_object_name": "STARLINK-35929",
        "meta_object_id": "2025-271J",
        "meta_epoch": "2025-12-11T20:00:01.999872",
        "meta_mean_motion": 15.53792131,
        "meta_eccentricity": 7.831e-05,
        "meta_inclination": 53.1596,
        "meta_ra_of_asc_node": 191.55,
        "meta_arg_of_pericenter": 95.4511,
        "meta_mean_anomaly": 342.0471,
        "meta_ephemeris_type": 0,
        "meta_classification_type": "U",
        "meta_norad_cat_id": 66625,
        "meta_element_set_no": 999,
        "meta_rev_at_epoch": 409,
        "meta_bstar": -0.035313235,
        "meta_mean_motion_dot": -0.02055816,
        "meta_mean_motion_ddot": 0,
        "tle_line1": "1 66625U 25271J   25345.83335648 -.02055816  00000+0 -35313-1 0  9995",
        "tle_line2": "2 66625  53.1596 191.5500 0000783  95.4511 342.0471 15.53792131  4091"
      },
      "geometry": {
        "type": "Point",
        "coordinates": [
          129.05234835167903,
          -49.15941003702485
        ]
      }
    }
  ]
}